{
  "type": "FeatureCollection",
  "features": [
    {
      "type": "Feature",
      "properties": {
        "norad_id": 31695,
        "name": "FENGYUN 1C DEB",
        "group": "fengyun-1c-debris",
        "lat": 26.197293472082592,
        "lon": -108.02498118703897,
        "alt_km": 636.3394862863706,
        "timestamp": "2025-12-09T14:52:26.445762+00:00",
        "meta_object_name": "FENGYUN 1C DEB",
        "meta_object_id": "1999-025CDD",
        "meta_epoch": "2025-12-07T23:02:55.358016",
        "meta_mean_motion": 14.73469415,
        "meta_eccentricity": 0.01753663,
        "meta_inclination": 98.2649,
        "meta_ra_of_asc_node": 66.1833,
        "meta_arg_of_pericenter": 243.8157,
        "meta_mean_anomaly": 114.4926,
        "meta_ephemeris_type": 0,
        "meta_classification_type": "U",
        "meta_norad_cat_id": 31695,
        "meta_element_set_no": 999,
        "meta_rev_at_epoch": 65901,
        "meta_bstar": 0.002048198,
        "meta_mean_motion_dot": 0.00016981,
        "meta_mean_motion_ddot": 0,
        "tle_line1": "1 31695U 99025CDD 25341.96036294  .00016981  00000+0  20482-2 0  9995",
        "tle_line2": "2 31695  98.2649  66.1833 0175366 243.8157 114.4926 14.73469415659011"
      },
      "geometry": {
        "type": "Point",
        "coordinates": [
          -108.02498118703897,
          26.197293472082592
        ]
      }
    },
    {
      "type": "Feature",
      "properties": {
        "norad_id": 31714,
        "name": "FENGYUN 1C DEB",
        "group": "fengyun-1c-debris",
        "lat": 79.17582469786112,
        "lon": -172.91875954527075,
        "alt_km": 607.4767286613214,
        "timestamp": "2025-12-09T14:52:26.445772+00:00",
        "meta_object_name": "FENGYUN 1C DEB",
        "meta_object_id": "1999-025CDM",
        "meta_epoch": "2025-12-09T06:59:58.204896",
        "meta_mean_motion": 14.87390367,
        "meta_eccentricity": 0.00198346,
        "meta_inclination": 99.0311,
        "meta_ra_of_asc_node": 242.9981,
        "meta_arg_of_pericenter": 314.7899,
        "meta_mean_anomaly": 173.2065,
        "meta_ephemeris_type": 0,
        "meta_classification_type": "U",
        "meta_norad_cat_id": 31714,
        "meta_element_set_no": 999,
        "meta_rev_at_epoch": 95998,
        "meta_bstar": 0.0088232786,
        "meta_mean_motion_dot": 0.00080906,
        "meta_mean_motion_ddot": 0,
        "tle_line1": "1 31714U 99025CDM 25343.29164589  .00080906  00000+0  88233-2 0  9990",
        "tle_line2": "2 31714  99.0311 242.9981 0019834 314.7899 173.2065 14.87390367959984"
      },
      "geometry": {
        "type": "Point",
        "coordinates": [
          -172.91875954527075,
          79.17582469786112
        ]
      }
    },
    {
      "type": "Feature",
      "properties": {
        "norad_id": 31715,
        "name": "FENGYUN 1C DEB",
        "group": "fengyun-1c-debris",
        "lat": -3.2246764848881795,
        "lon": -8.423765913236936,
        "alt_km": 643.0959553007779,
        "timestamp": "2025-12-09T14:52:26.445783+00:00",
        "meta_object_name": "FENGYUN 1C DEB",
        "meta_object_id": "1999-025CDN",
        "meta_epoch": "2025-12-07T19:03:06.691680",
        "meta_mean_motion": 14.52094814,
        "meta_eccentricity": 0.01871271,
        "meta_inclination": 99.2933,
        "meta_ra_of_asc_node": 170.0847,
        "meta_arg_of_pericenter": 134.2132,
        "meta_mean_anomaly": 227.4603,
        "meta_ephemeris_type": 0,
        "meta_classification_type": "U",
        "meta_norad_cat_id": 31715,
        "meta_element_set_no": 999,
        "meta_rev_at_epoch": 61645,
        "meta_bstar": 0.0016938119,
        "meta_mean_motion_dot": 8.571e-05,
        "meta_mean_motion_ddot": 0,
        "tle_line1": "1 31715U 99025CDN 25341.79382745  .00008571  00000+0  16938-2 0  9991",
        "tle_line2": "2 31715  99.2933 170.0847 0187127 134.2132 227.4603 14.52094814616457"
      },
      "geometry": {
        "type": "Point",
        "coordinates": [
          -8.423765913236936,
          -3.2246764848881795
        ]
      }
    },
    {
      "type": "Feature",
      "properties": {
        "norad_id": 31716,
        "name": "FENGYUN 1C DEB",
        "group": "fengyun-1c-debris",
        "lat": -51.00584659140307,
        "lon": -106.50145562405024,
        "alt_km": 971.2371697045091,
        "timestamp": "2025-12-09T14:52:26.445794+00:00",
        "meta_object_name": "FENGYUN 1C DEB",
        "meta_object_id": "1999-025CDP",
        "meta_epoch": "2025-12-08T05:37:21.600192",
        "meta_mean_motion": 14.03577744,
        "meta_eccentricity": 0.01316478,
        "meta_inclination": 98.5559,
        "meta_ra_of_asc_node": 241.4783,
        "meta_arg_of_pericenter": 102.7511,
        "meta_mean_anomaly": 49.5156,
        "meta_ephemeris_type": 0,
        "meta_classification_type": "U",
        "meta_norad_cat_id": 31716,
        "meta_element_set_no": 999,
        "meta_rev_at_epoch": 94056,
        "meta_bstar": 0.0019814323,
        "meta_mean_motion_dot": 3.318e-05,
        "meta_mean_motion_ddot": 0,
        "tle_line1": "1 31716U 99025CDP 25342.23427778  .00003318  00000+0  19814-2 0  9998",
        "tle_line2": "2 31716  98.5559 241.4783 0131647 102.7511  49.5156 14.03577744940565"
      },
      "geometry": {
        "type": "Point",
        "coordinates": [
          -106.50145562405024,
          -51.00584659140307
        ]
      }
    },
    {
      "type": "Feature",
      "properties": {
        "norad_id": 31720,
        "name": "FENGYUN 1C DEB",
        "group": "fengyun-1c-debris",
        "lat": 51.1872829864366,
        "lon": -116.23342519807291,
        "alt_km": 638.96339432677,
        "timestamp": "2025-12-09T14:52:26.445804+00:00",
        "meta_object_name": "FENGYUN 1C DEB",
        "meta_object_id": "1999-025CDT",
        "meta_epoch": "2025-12-06T11:34:46.803360",
        "meta_mean_motion": 14.71723784,
        "meta_eccentricity": 0.00997846,
        "meta_inclination": 99.0473,
        "meta_ra_of_asc_node": 251.706,
        "meta_arg_of_pericenter": 142.8695,
        "meta_mean_anomaly": 217.9466,
        "meta_ephemeris_type": 0,
        "meta_classification_type": "U",
        "meta_norad_cat_id": 31720,
        "meta_element_set_no": 999,
        "meta_rev_at_epoch": 98144,
        "meta_bstar": 0.001372845,
        "meta_mean_motion_dot": 9.204e-05,
        "meta_mean_motion_ddot": 0,
        "tle_line1": "1 31720U 99025CDT 25340.48248615  .00009204  00000+0  13728-2 0  9997",
        "tle_line2": "2 31720  99.0473 251.7060 0099784 142.8695 217.9466 14.71723784981445"
      },
      "geometry": {
        "type": "Point",
        "coordinates": [
          -116.23342519807291,
          51.1872829864366
        ]
      }
    },
    {
      "type": "Feature",
      "properties": {
        "norad_id": 31721,
        "name": "FENGYUN 1C DEB",
        "group": "fengyun-1c-debris",
        "lat": 25.628494267361038,
        "lon": 147.91348525946523,
        "alt_km": 797.5113014739263,
        "timestamp": "2025-12-09T14:52:26.445814+00:00",
        "meta_object_name": "FENGYUN 1C DEB",
        "meta_object_id": "1999-025CDU",
        "meta_epoch": "2025-12-08T05:01:15.794976",
        "meta_mean_motion": 13.73771866,
        "meta_eccentricity": 0.0317292,
        "meta_inclination": 99.7807,
        "meta_ra_of_asc_node": 321.7225,
        "meta_arg_of_pericenter": 195.2258,
        "meta_mean_anomaly": 188.5225,
        "meta_ephemeris_type": 0,
        "meta_classification_type": "U",
        "meta_norad_cat_id": 31721,
        "meta_element_set_no": 999,
        "meta_rev_at_epoch": 67324,
        "meta_bstar": 0.00061040701,
        "meta_mean_motion_dot": 7.74e-06,
        "meta_mean_motion_ddot": 0,
        "tle_line1": "1 31721U 99025CDU 25342.20921059  .00000774  00000+0  61041-3 0  9995",
        "tle_line2": "2 31721  99.7807 321.7225 0317292 195.2258 188.5225 13.73771866673246"
      },
      "geometry": {
        "type": "Point",
        "coordinates": [
          147.91348525946523,
          25.628494267361038
        ]
      }
    },
    {
      "type": "Feature",
      "properties": {
        "norad_id": 31724,
        "name": "FENGYUN 1C DEB",
        "group": "fengyun-1c-debris",
        "lat": -29.359921082207293,
        "lon": 165.35865443998475,
        "alt_km": 654.0808295671477,
        "timestamp": "2025-12-09T14:52:26.445825+00:00",
        "meta_object_name": "FENGYUN 1C DEB",
        "meta_object_id": "1999-025CDX",
        "meta_epoch": "2025-12-04T06:16:47.265024",
        "meta_mean_motion": 14.48822962,
        "meta_eccentricity": 0.0152327,
        "meta_inclination": 97.8549,
        "meta_ra_of_asc_node": 344.8228,
        "meta_arg_of_pericenter": 268.5146,
        "meta_mean_anomaly": 89.8595,
        "meta_ephemeris_type": 0,
        "meta_classification_type": "U",
        "meta_norad_cat_id": 31724,
        "meta_element_set_no": 999,
        "meta_rev_at_epoch": 64369,
        "meta_bstar": 0.0052478,
        "meta_mean_motion_dot": 0.00022998,
        "meta_mean_motion_ddot": 0,
        "tle_line1": "1 31724U 99025CDX 25338.26165816  .00022998  00000+0  52478-2 0  9995",
        "tle_line2": "2 31724  97.8549 344.8228 0152327 268.5146  89.8595 14.48822962643692"
      },
      "geometry": {
        "type": "Point",
        "coordinates": [
          165.35865443998475,
          -29.359921082207293
        ]
      }
    }
  ]
}